IRIDIUM 159             
1 43578U 18061K   24097.56595685  .00000090  00000+0  25123-4 0  9999
2 43578  86.4008  31.7008 0002106  87.8500 272.2936 14.34217947298485
IRIDIUM 180             
1 43922U 19002A   24097.91430080  .00000274  00000+0  90888-4 0  9998
2 43922  86.3975 328.4791 0002100  86.5120 273.6316 14.34218858274183
IRIDIUM 176             
1 43923U 19002B   24097.88770495  .00000952  00000+0  14714-3 0  9998
2 43923  86.6104 328.5171 0002425  90.1099 270.0396 14.72242289281353
IRIDIUM 168             
1 43924U 19002C   24097.90795004  .00000296  00000+0  98654-4 0  9992
2 43924  86.3977 328.5364 0002034  86.7241 273.4187 14.34218890274120
IRIDIUM 173             
1 43925U 19002D   24097.89527224  .00000165  00000+0  51876-4 0  9998
2 43925  86.3975 328.4633 0002096  87.3931 272.7505 14.34216861274119
IRIDIUM 169             
1 43926U 19002E   24097.83062253  .00000396  00000+0  12300-3 0  9993
2 43926  86.4282   0.0876 0004369  95.2353 264.9344 14.38598702275010
IRIDIUM 172             
1 43927U 19002F   24097.60986124  .00000290  00000+0  96316-4 0  9994
2 43927  86.3975 328.5883 0002005  86.8790 273.2635 14.34216896274079
IRIDIUM 175             
1 43928U 19002G   24097.33808967  .00000302  00000+0  43872-4 0  9996
2 43928  86.1476 305.9461 0002275  88.3998 271.7479 14.72233509281261
